0 FENGYUN 1C DEB
1 36650U 99025DXU 13294.63214040  .00070795  00000-0  48347-2 0  1431
2 36650 098.6422 350.6111 0117892 163.9649 254.2288 15.00326661212170
